OBJECT_NAME,OBJECT_ID,EPOCH,MEAN_MOTION,ECCENTRICITY,INCLINATION,RA_OF_ASC_NODE,ARG_OF_PERICENTER,MEAN_ANOMALY,EPHEMERIS_TYPE,CLASSIFICATION_TYPE,NORAD_CAT_ID,ELEMENT_SET_NO,REV_AT_EPOCH,BSTAR,MEAN_MOTION_DOT,MEAN_MOTION_DDOT
ONEWEB-0336,2021-083S,2026-06-11T22:13:45.998112,13.13469551,.00022516,87.8948,321.2755,94.2535,265.8851,0,U,49202,999,23022,-.83946022E-3,-.294E-5,0
ONEWEB-0337,2021-083T,2026-06-11T22:28:12.088992,13.13470194,.00019922,87.8944,321.2797,98.6878,261.4477,0,U,49203,999,23022,-.61749968E-3,-.213E-5,0
ONEWEB-0338,2021-083U,2026-06-11T19:32:00.769056,13.20778886,.00016544,87.9180,275.5201,100.7392,259.3928,0,U,49204,999,23610,-.26442524E-2,-.1062E-4,0
ONEWEB-0339,2021-083V,2026-06-11T22:40:34.974336,13.13470802,.00015767,87.8946,321.2705,101.6873,258.4433,0,U,49205,999,23020,-.14720362E-3,-.41E-6,0
ONEWEB-0340,2021-083W,2026-06-11T17:54:39.849984,13.18685489,.00020016,87.9167,336.5379,91.1002,269.0359,0,U,49206,999,22925,.67629322E-4,.4E-6,0
ONEWEB-0341,2021-083X,2026-06-11T21:42:54.211968,13.18685729,.00021639,87.9160,336.5099,103.4959,256.6414,0,U,49207,999,22929,.13944137E-3,.68E-6,0
ONEWEB-0342,2021-083Y,2026-06-11T17:52:36.644448,13.20770985,.00018818,87.9194,275.5214,102.7138,257.4206,0,U,49208,999,23606,.56291532E-4,.36E-6,0
ONEWEB-0343,2021-083Z,2026-06-11T21:55:02.974368,13.18685923,.00015428,87.9164,336.5068,102.0563,258.0742,0,U,49209,999,22934,.11645603E-3,.59E-6,0
ONEWEB-0344,2021-083AA,2026-06-11T22:33:15.825600,13.13472258,.00020796,87.8938,321.2863,104.2692,255.8668,0,U,49210,999,23020,-.6117404E-3,-.211E-5,0
ONEWEB-0345,2021-083AB,2026-06-11T22:21:04.356288,13.13470653,.00020082,87.8955,321.2680,103.7503,256.3850,0,U,49211,999,23021,-.91200596E-3,-.32E-5,0
ONEWEB-0346,2021-083AC,2026-06-11T21:50:11.286240,13.18685140,.00024162,87.9157,336.5081,82.7816,277.3591,0,U,49212,999,22928,.10449325E-3,.54E-6,0
ONEWEB-0348,2021-083AD,2026-06-11T19:27:09.131040,13.20770448,.00024907,87.9192,275.5120,99.6216,260.5199,0,U,49213,999,23610,.8652785E-4,.48E-6,0
ONEWEB-0350,2021-083AE,2026-06-11T22:42:02.059488,13.12943676,.00020572,87.8953,321.2689,100.5155,259.6205,0,U,49214,999,23024,-.18575276E-3,-.55E-6,0
ONEWEB-0351,2021-083AF,2026-06-11T21:06:20.013120,13.20769721,.00018092,87.9193,275.4970,127.0203,233.1097,0,U,49215,999,23607,-.74520706E-4,-.17E-6,0
ONEWEB-0352,2021-083AG,2026-06-11T22:06:27.429984,13.13469994,.00015376,87.8948,321.2815,106.2305,253.8993,0,U,49216,999,23033,-.70355623E-3,-.244E-5,0
ONEWEB-0354,2021-083AH,2026-06-11T18:07:09.820128,13.20772204,.00023631,87.9191,275.5207,102.5530,257.5867,0,U,49217,999,23609,-.13810787E-3,-.43E-6,0
ONEWEB-0355,2021-083AJ,2026-06-11T22:48:06.104160,13.13470295,.00018117,87.8941,321.2772,103.2837,256.8495,0,U,49218,999,23021,.25258658E-3,.105E-5,0
ONEWEB-0357,2021-083AK,2026-06-11T18:02:18.775680,13.20772228,.00018681,87.9191,275.5156,106.3738,253.7601,0,U,49219,999,23609,-.92758995E-4,-.25E-6,0
ONEWEB-0332,2021-090A,2026-06-11T19:32:32.314560,13.14501214,.00016601,87.8963,290.7800,98.8504,261.2814,0,U,49279,999,22687,.34578759E-3,.141E-5,0
ONEWEB-0347,2021-090B,2026-06-11T19:36:51.240672,13.20770718,.00017243,87.9191,275.5107,97.8899,262.2430,0,U,49280,999,23033,-.48719423E-4,-.7E-7,0
ONEWEB-0349,2021-090C,2026-06-11T20:22:55.324416,13.20772100,.00019791,87.9190,275.5049,101.3000,258.8356,0,U,49281,999,22912,-.2045722E-3,-.7E-6,0
ONEWEB-0353,2021-090D,2026-06-11T21:10:45.179040,13.14502580,.0001635,87.8962,290.7620,97.3053,262.8263,0,U,49282,999,22688,.46289485E-3,.184E-5,0
ONEWEB-0356,2021-090E,2026-06-11T20:20:29.557248,13.20773280,.00022266,87.9190,275.4985,79.3151,280.8233,0,U,49283,999,22912,-.22771946E-3,-.8E-6,0
ONEWEB-0358,2021-090F,2026-06-11T19:15:39.998592,13.20236717,.00021418,87.9194,275.5121,96.9759,263.1617,0,U,49284,999,22984,.26698084E-4,.24E-6,0
ONEWEB-0359,2021-090G,2026-06-11T20:59:16.795680,13.20772637,.0002262,87.9190,275.4932,101.2943,258.8445,0,U,49285,999,22983,-.66528838E-4,-.14E-6,0
ONEWEB-0360,2021-090H,2026-06-11T20:44:44.461536,13.20772990,.00020257,87.9190,275.5012,103.3247,256.8112,0,U,49286,999,22914,-.19860364E-3,-.68E-6,0
ONEWEB-0361,2021-090J,2026-06-11T20:18:03.429792,13.20770847,.00020861,87.9191,275.5033,98.9645,261.1724,0,U,49287,999,22959,-.20381081E-3,-.7E-6,0
ONEWEB-0362,2021-090K,2026-06-11T22:42:02.581344,13.19724005,.00018298,87.9165,306.0223,106.5589,253.5745,0,U,49288,999,22622,-.15786562E-3,-.5E-6,0
ONEWEB-0363,2021-090L,2026-06-11T20:39:52.185024,13.20770258,.00021022,87.9191,275.5007,91.8809,268.2565,0,U,49289,999,22960,-.1592871E-3,-.52E-6,0
ONEWEB-0364,2021-090M,2026-06-11T17:57:27.375264,13.20771333,.00019708,87.9190,275.5311,101.0919,259.0436,0,U,49290,999,23072,-.10205141E-3,-.29E-6,0
