ONEWEB-0336             
1 49202U 21083S   26162.92622683 -.00000294  00000+0 -83946-3 0  9995
2 49202  87.8948 321.2755 0002251  94.2535 265.8851 13.13469551230228
ONEWEB-0337             
1 49203U 21083T   26162.93625103 -.00000213  00000+0 -61750-3 0  9997
2 49203  87.8944 321.2797 0001992  98.6878 261.4477 13.13470194230221
ONEWEB-0338             
1 49204U 21083U   26162.81389779 -.00001062  00000+0 -26443-2 0  9993
2 49204  87.9180 275.5201 0001654 100.7392 259.3928 13.20778886236104
ONEWEB-0339             
1 49205U 21083V   26162.94484924 -.00000041  00000+0 -14720-3 0  9998
2 49205  87.8946 321.2705 0001576 101.6873 258.4433 13.13470802230204
ONEWEB-0340             
1 49206U 21083W   26162.74629456  .00000040  00000+0  67629-4 0  9992
2 49206  87.9167 336.5379 0002001  91.1002 269.0359 13.18685489229250
ONEWEB-0341             
1 49207U 21083X   26162.90479412  .00000068  00000+0  13944-3 0  9996
2 49207  87.9160 336.5099 0002163 103.4959 256.6414 13.18685729229295
ONEWEB-0342             
1 49208U 21083Y   26162.74486857  .00000036  00000+0  56292-4 0  9999
2 49208  87.9194 275.5214 0001881 102.7138 257.4206 13.20770985236064
ONEWEB-0343             
1 49209U 21083Z   26162.91322887  .00000059  00000+0  11646-3 0  9999
2 49209  87.9164 336.5068 0001542 102.0563 258.0742 13.18685923229345
ONEWEB-0344             
1 49210U 21083AA  26162.93976650 -.00000211  00000+0 -61174-3 0  9999
2 49210  87.8938 321.2863 0002079 104.2692 255.8668 13.13472258230201
ONEWEB-0345             
1 49211U 21083AB  26162.93130042 -.00000320  00000+0 -91201-3 0  9992
2 49211  87.8955 321.2680 0002008 103.7503 256.3850 13.13470653230212
ONEWEB-0346             
1 49212U 21083AC  26162.90985285  .00000054  00000+0  10449-3 0  9994
2 49212  87.9157 336.5081 0002416  82.7816 277.3591 13.18685140229282
ONEWEB-0348             
1 49213U 21083AD  26162.81052235  .00000048  00000+0  86528-4 0  9990
2 49213  87.9192 275.5120 0002490  99.6216 260.5199 13.20770448236107
ONEWEB-0350             
1 49214U 21083AE  26162.94585717 -.00000055  00000+0 -18575-3 0  9997
2 49214  87.8953 321.2689 0002057 100.5155 259.6205 13.12943676230246
ONEWEB-0351             
1 49215U 21083AF  26162.87939830 -.00000017  00000+0 -74521-4 0  9991
2 49215  87.9193 275.4970 0001809 127.0203 233.1097 13.20769721236078
ONEWEB-0352             
1 49216U 21083AG  26162.92115081 -.00000244  00000+0 -70356-3 0  9995
2 49216  87.8948 321.2815 0001537 106.2305 253.8993 13.13469994230332
ONEWEB-0354             
1 49217U 21083AH  26162.75497477 -.00000043  00000+0 -13811-3 0  9999
2 49217  87.9191 275.5207 0002363 102.5530 257.5867 13.20772204236096
ONEWEB-0355             
1 49218U 21083AJ  26162.95007065  .00000105  00000+0  25259-3 0  9998
2 49218  87.8941 321.2772 0001811 103.2837 256.8495 13.13470295230214
ONEWEB-0357             
1 49219U 21083AK  26162.75160620 -.00000025  00000+0 -92759-4 0  9997
2 49219  87.9191 275.5156 0001868 106.3738 253.7601 13.20772228236092
ONEWEB-0332             
1 49279U 21090A   26162.81426290  .00000141  00000+0  34579-3 0  9998
2 49279  87.8963 290.7800 0001660  98.8504 261.2814 13.14501214226878
ONEWEB-0347             
1 49280U 21090B   26162.81725973 -.00000007  00000+0 -48719-4 0  9995
2 49280  87.9191 275.5107 0001724  97.8899 262.2430 13.20770718230337
ONEWEB-0349             
1 49281U 21090C   26162.84925144 -.00000070  00000+0 -20457-3 0  9999
2 49281  87.9190 275.5049 0001979 101.3000 258.8356 13.20772100229129
ONEWEB-0353             
1 49282U 21090D   26162.88246735  .00000184  00000+0  46289-3 0  9991
2 49282  87.8962 290.7620 0001635  97.3053 262.8263 13.14502580226889
ONEWEB-0356             
1 49283U 21090E   26162.84756432 -.00000080  00000+0 -22772-3 0  9996
2 49283  87.9190 275.4985 0002226  79.3151 280.8233 13.20773280229125
ONEWEB-0358             
1 49284U 21090F   26162.80254628  .00000024  00000+0  26698-4 0  9991
2 49284  87.9194 275.5121 0002141  96.9759 263.1617 13.20236717229846
ONEWEB-0359             
1 49285U 21090G   26162.87449995 -.00000014  00000+0 -66529-4 0  9990
2 49285  87.9190 275.4932 0002262 101.2943 258.8445 13.20772637229836
ONEWEB-0360             
1 49286U 21090H   26162.86440349 -.00000068  00000+0 -19860-3 0  9998
2 49286  87.9190 275.5012 0002025 103.3247 256.8112 13.20772990229149
ONEWEB-0361             
1 49287U 21090J   26162.84587303 -.00000070  00000+0 -20381-3 0  9992
2 49287  87.9191 275.5033 0002086  98.9645 261.1724 13.20770847229598
ONEWEB-0362             
1 49288U 21090K   26162.94586321 -.00000050  00000+0 -15787-3 0  9995
2 49288  87.9165 306.0223 0001829 106.5589 253.5745 13.19724005226226
ONEWEB-0363             
1 49289U 21090L   26162.86102066 -.00000052  00000+0 -15929-3 0  9997
2 49289  87.9191 275.5007 0002102  91.8809 268.2565 13.20770258229603
ONEWEB-0364             
1 49290U 21090M   26162.74823351 -.00000029  00000+0 -10205-3 0  9999
2 49290  87.9190 275.5311 0001970 101.0919 259.0436 13.20771333230725
